{"fetched_at":"2026-03-30T06:02:59Z","count":15439,"tles":[{"name":"STARLINK-34617","line1":"1 65015U 25161A   26087.74381828  .00043289  00000+0  14648-2 0  9996","line2":"2 65015  53.1585 205.9474 0001335  71.3508 288.7637 15.30207887 37140","category":"Starlink"}]}